COSMOS 2425 (716)       
1 29670U 06062A   18156.35411836 -.00000014  00000-0  10000-3 0  9990
2 29670  65.2881 292.9369 0020692 350.3018   3.6841  2.13104916 89056
COSMOS 2426 (717)       
1 29671U 06062B   18155.56922191 -.00000013  00000-0  10000-3 0  9993
2 29671  65.3045 293.0597 0018478 160.0384 167.6381  2.13102863 89044
COSMOS 2433 (720)       
1 32275U 07052A   18155.66460969 -.00000053  00000-0  10000-3 0  9992
2 32275  65.6828  53.7825 0002834 301.0286  75.3594  2.13104477 82566
COSMOS 2432 (719)       
1 32276U 07052B   18155.66031317 -.00000053  00000-0  10000-3 0  9994
2 32276  65.6942  53.8589 0012723 338.1169 346.9751  2.13103986 82556
COSMOS 2434 (721)       
1 32393U 07065A   18155.64180159 -.00000014  00000-0  00000+0 0  9997
2 32393  64.9021 291.9409 0005575 107.8477 139.1366  2.13102918 81267
COSMOS 2436 (723)       
1 32395U 07065C   18155.66421963 -.00000014  00000-0  10000-3 0  9997
2 32395  64.9106 291.9898 0014965   6.4705 308.1472  2.13104311 81193
COSMOS 2456 (730)       
1 36111U 09070A   18155.67392795  .00000079  00000-0  00000+0 0  9991
2 36111  64.1852 171.5294 0006513 301.2470 142.6021  2.13102926 65936
COSMOS 2457 (733)       
1 36112U 09070B   18155.66079934  .00000079  00000-0  00000-0 0  9999
2 36112  64.1677 171.4408 0005775 194.1501   6.5671  2.13101547 65938
COSMOS 2458 (734)       
1 36113U 09070C   18155.57912116  .00000078  00000-0  10000-3 0  9991
2 36113  64.1744 171.4564 0002881 316.4966 229.5330  2.13097115 65930
COSMOS 2459 (731)       
1 36400U 10007A   18155.61090068 -.00000054  00000-0  10000-3 0  9995
2 36400  65.5910  52.8464 0028541 352.7608 201.4645  2.13102212 64287
COSMOS 2461 (735)       
1 36401U 10007B   18155.61544567 -.00000054  00000-0  10000-3 0  9994
2 36401  65.5842  52.8206 0007789  54.2587  54.0437  2.13102244 64283
COSMOS 2460 (732)       
1 36402U 10007C   18155.58519655 -.00000054  00000-0  10000-3 0  9991
2 36402  65.5743  52.7894 0002008   8.3377 117.4135  2.13101597 64281
COSMOS 2464 (736)       
1 37139U 10041C   18156.41336588 -.00000016  00000-0  00000+0 0  9995
2 37139  64.5054 291.7263 0023874  16.3258 330.3750  2.13102651 60365
COSMOS 2471 (701K)      
1 37372U 11009A   18156.39892050 -.00000054  00000-0  00000+0 0  9999
2 37372  65.5712  52.7080 0007377 240.6498 293.0664  2.13107488 56576
COSMOS 2474 (742)       
1 37829U 11055A   18156.06343874  .00000084  00000-0  00000+0 0  9998
2 37829  64.5093 172.2283 0010886 253.4364 347.4435  2.13101905 51933
COSMOS 2476 (744)       
1 37867U 11064A   18155.70211484  .00000079  00000-0  00000+0 0  9995
2 37867  64.4897 172.3047 0020526 245.6208 124.1079  2.13102160 51283
COSMOS 2477 (745)       
1 37868U 11064B   18156.07836358  .00000084  00000-0  00000+0 0  9996
2 37868  64.4973 172.3387 0018244 247.0447 230.2267  2.13101779 51240
COSMOS 2475 (743)       
1 37869U 11064C   18155.97512169  .00000083  00000-0  00000+0 0  9995
2 37869  64.5044 172.3365 0022934 268.7234  86.0395  2.13102031 51243
COSMOS 2485 (747)       
1 39155U 13019A   18155.64553572  .00000079  00000-0  00000+0 0  9999
2 39155  64.6582 172.4114 0020748 240.8817 130.3170  2.13101969 39758
COSMOS 2492 (754)       
1 39620U 14012A   18156.30686110 -.00000055  00000-0  10000-3 0  9999
2 39620  65.4646  52.6523 0015886 333.3702 219.9364  2.13103369 32710
COSMOS 2500 (755)       
1 40001U 14032A   18155.99979877 -.00000055  00000-0  00000+0 0  9990
2 40001  65.4047  52.6339 0004311 216.5956 323.4382  2.13102829 30921
COSMOS 2501 (702K)      
1 40315U 14075A   18156.47900723 -.00000017  00000-0  00000+0 0  9991
2 40315  64.2297 292.9409 0015292 203.1612 146.2595  2.13098575 27331
COSMOS 2514 (751)       
1 41330U 16008A   18155.77774179 -.00000055  00000-0  00000-0 0  9996
2 41330  65.2079  52.6983 0007784 223.4848 327.0486  2.13103242 18087
COSMOS 2516 (753)       
1 41554U 16032A   18155.58010164 -.00000015  00000-0  00000-0 0  9993
2 41554  64.4511 292.8334 0011283 211.5774  78.4995  2.13101582 15680
COSMOS 2522 (752)       
1 42939U 17055A   18155.64622699 -.00000015  00000-0  00000+0 0  9995
2 42939  64.6809 292.7939 0005941 238.8490 328.3861  2.13101813  5440
